[{"OBJECT_NAME":"STARLINK-30609","OBJECT_ID":"2023-160L","EPOCH":"2026-03-08T07:53:16.804608","MEAN_MOTION":15.02547951,"ECCENTRICITY":0.00015778,"INCLINATION":43.0014,"RA_OF_ASC_NODE":87.606,"ARG_OF_PERICENTER":278.0465,"MEAN_ANOMALY":82.0198,"EPHEMERIS_TYPE":0,"CLASSIFICATION_TYPE":"U","NORAD_CAT_ID":58085,"ELEMENT_SET_NO":999,"REV_AT_EPOCH":13271,"BSTAR":0.00010421992,"MEAN_MOTION_DOT":1.205e-5,"MEAN_MOTION_DDOT":0},{"OBJECT_NAME":"IRIDIUM 33 DEB","OBJECT_ID":"1997-051ACD","EPOCH":"2026-02-15T04:06:14.442336","MEAN_MOTION":15.0282309,"ECCENTRICITY":0.00183243,"INCLINATION":86.3384,"RA_OF_ASC_NODE":302.6959,"ARG_OF_PERICENTER":121.5358,"MEAN_ANOMALY":29.3036,"EPHEMERIS_TYPE":0,"CLASSIFICATION_TYPE":"U","NORAD_CAT_ID":46971,"ELEMENT_SET_NO":999,"REV_AT_EPOCH":65196,"BSTAR":0.0024316654,"MEAN_MOTION_DOT":0.00032805,"MEAN_MOTION_DDOT":0}]
